start=new Date('2022-08-15T00:00:00.000Z').valueOf();
sats=[{"REF_FRAME":"TEME","PERIOD":"91.530","OBJECT_ID":"2022-076AK","TLE_LINE1":"1 53019U 22076AK  22227.00001157 -.00087342  00000-0 -62270-3 0  9990","APOAPSIS":"351.338","REV_AT_EPOCH":"655","MEAN_ANOMALY":"281.6358","EPOCH":"2022-08-15T00:00:00.999648","COUNTRY_CODE":"US","ECCENTRICITY":"0.00025880","GP_ID":"210210246","MEAN_MOTION_DDOT":"0.0000000000000","BSTAR":"-0.00062270000000","INCLINATION":"53.2187","CENTER_NAME":"EARTH","ELEMENT_SET_NO":"999","SEMIMAJOR_AXIS":"6727.732","NORAD_CAT_ID":"53019","TIME_SYSTEM":"UTC","CLASSIFICATION_TYPE":"U","FILE":"3536603","RA_OF_ASC_NODE":"189.2729","ARG_OF_PERICENTER":"22.3616","RCS_SIZE":"LARGE","LAUNCH_DATE":"2022-07-07","MEAN_ELEMENT_THEORY":"SGP4","TLE_LINE2":"2 53019  53.2187 189.2729 0002588  22.3616 281.6358 15.73257261  6555","MEAN_MOTION_DOT":"-0.00087342","OBJECT_NAME":"STARLINK-4282","PERIAPSIS":"347.856","SITE":"AFETR","OBJECT_TYPE":"PAYLOAD","MEAN_MOTION":"15.73257261","DECAY_DATE":null,"EPHEMERIS_TYPE":"0"},{"LAUNCH_DATE":"2022-07-07","RCS_SIZE":"LARGE","FILE":"3536615","RA_OF_ASC_NODE":"189.6886","ARG_OF_PERICENTER":"26.0461","CLASSIFICATION_TYPE":"U","TIME_SYSTEM":"UTC","PERIAPSIS":"348.524","MEAN_MOTION_DOT":"-0.00011033","OBJECT_NAME":"STARLINK-4287","TLE_LINE2":"2 53020  53.2187 189.6886 0001798  26.0461 163.4269 15.73209380  1301","MEAN_ELEMENT_THEORY":"SGP4","OBJECT_TYPE":"PAYLOAD","SITE":"AFETR","EPHEMERIS_TYPE":"0","DECAY_DATE":null,"MEAN_MOTION":"15.73209380","TLE_LINE1":"1 53020U 22076AL  22226.91667824 -.00011033  00000-0 -74255-4 0  9991","OBJECT_ID":"2022-076AL","PERIOD":"91.533","REF_FRAME":"TEME","GP_ID":"210235245","ECCENTRICITY":"0.00017980","COUNTRY_CODE":"US","EPOCH":"2022-08-14T22:00:00.999936","MEAN_ANOMALY":"163.4269","REV_AT_EPOCH":"130","APOAPSIS":"350.943","BSTAR":"-0.00007425500000","MEAN_MOTION_DDOT":"0.0000000000000","NORAD_CAT_ID":"53020","SEMIMAJOR_AXIS":"6727.868","ELEMENT_SET_NO":"999","INCLINATION":"53.2187","CENTER_NAME":"EARTH"},{"OBJECT_TYPE":"PAYLOAD","SITE":"AFETR","EPHEMERIS_TYPE":"0","DECAY_DATE":null,"MEAN_MOTION":"15.73250569","TIME_SYSTEM":"UTC","FILE":"3536604","ARG_OF_PERICENTER":"19.8544","RA_OF_ASC_NODE":"189.2703","CLASSIFICATION_TYPE":"U","LAUNCH_DATE":"2022-07-07","RCS_SIZE":"LARGE","MEAN_MOTION_DOT":"-0.00048649","OBJECT_NAME":"STARLINK-4203","TLE_LINE2":"2 53021  53.2188 189.2703 0002686  19.8544 285.3130 15.73250569  6554","MEAN_ELEMENT_THEORY":"SGP4","PERIAPSIS":"347.809","MEAN_MOTION_DDOT":"0.0000000000000","BSTAR":"-0.00034338000000","INCLINATION":"53.2188","CENTER_NAME":"EARTH","SEMIMAJOR_AXIS":"6727.751","ELEMENT_SET_NO":"999","NORAD_CAT_ID":"53021","REF_FRAME":"TEME","OBJECT_ID":"2022-076AM","PERIOD":"91.530","TLE_LINE1":"1 53021U 22076AM  22227.00001157 -.00048649  00000-0 -34338-3 0  9994","REV_AT_EPOCH":"655","APOAPSIS":"351.423","EPOCH":"2022-08-15T00:00:00.999648","MEAN_ANOMALY":"285.3130","ECCENTRICITY":"0.00026860","COUNTRY_CODE":"US","GP_ID":"210210128"},{"SITE":"AFETR","OBJECT_TYPE":"PAYLOAD","EPHEMERIS_TYPE":"0","DECAY_DATE":null,"MEAN_MOTION":"15.73236401","LAUNCH_DATE":"2022-07-07","RCS_SIZE":"LARGE","ARG_OF_PERICENTER":"18.9247","FILE":"3536615","RA_OF_ASC_NODE":"189.6850","CLASSIFICATION_TYPE":"U","TIME_SYSTEM":"UTC","PERIAPSIS":"348.121","MEAN_MOTION_DOT":"-0.00046431","OBJECT_NAME":"STARLINK-4216","MEAN_ELEMENT_THEORY":"SGP4","TLE_LINE2":"2 53022  53.2188 189.6850 0002282  18.9247 172.3206 15.73236401  1300","BSTAR":"-0.00032766000000","MEAN_MOTION_DDOT":"0.0000000000000","NORAD_CAT_ID":"53022","SEMIMAJOR_AXIS":"6727.791","ELEMENT_SET_NO":"999","INCLINATION":"53.2188","CENTER_NAME":"EARTH","TLE_LINE1":"1 53022U 22076AN  22226.91667824 -.00046431  00000-0 -32766-3 0  9993","OBJECT_ID":"2022-076AN","PERIOD":"91.531","REF_FRAME":"TEME","GP_ID":"210234981","ECCENTRICITY":"0.00022820","COUNTRY_CODE":"US","EPOCH":"2022-08-14T22:00:00.999936","MEAN_ANOMALY":"172.3206","REV_AT_EPOCH":"130","APOAPSIS":"351.192"},{"REF_FRAME":"TEME","OBJECT_ID":"2022-076AP","PERIOD":"91.531","TLE_LINE1":"1 53023U 22076AP  22226.91667824  .00000980  00000-0  11391-4 0  9993","APOAPSIS":"351.050","REV_AT_EPOCH":"130","EPOCH":"2022-08-14T22:00:00.999936","MEAN_ANOMALY":"168.5603","ECCENTRICITY":"0.00020680","COUNTRY_CODE":"US","GP_ID":"210235109","MEAN_MOTION_DDOT":"0.0000000000000","BSTAR":"0.00001139100000","INCLINATION":"53.2170","CENTER_NAME":"EARTH","SEMIMAJOR_AXIS":"6727.794","ELEMENT_SET_NO":"999","NORAD_CAT_ID":"53023","TIME_SYSTEM":"UTC","ARG_OF_PERICENTER":"25.5772","FILE":"3536615","RA_OF_ASC_NODE":"189.6803","CLASSIFICATION_TYPE":"U","LAUNCH_DATE":"2022-07-07","RCS_SIZE":"LARGE","OBJECT_NAME":"STARLINK-4284","MEAN_MOTION_DOT":"0.00000980","TLE_LINE2":"2 53023  53.2170 189.6803 0002068  25.5772 168.5603 15.73235587  1301","MEAN_ELEMENT_THEORY":"SGP4","PERIAPSIS":"348.267","OBJECT_TYPE":"PAYLOAD","SITE":"AFETR","EPHEMERIS_TYPE":"0","DECAY_DATE":null,"MEAN_MOTION":"15.73235587"},{"GP_ID":"210234852","COUNTRY_CODE":"US","ECCENTRICITY":"0.00018410","MEAN_ANOMALY":"166.7295","EPOCH":"2022-08-14T22:00:00.999936","APOAPSIS":"350.862","REV_AT_EPOCH":"130","TLE_LINE1":"1 53024U 22076AQ  22226.91667824 -.00075399  00000-0 -53647-3 0  9991","PERIOD":"91.530","OBJECT_ID":"2022-076AQ","REF_FRAME":"TEME","NORAD_CAT_ID":"53024","ELEMENT_SET_NO":"999","SEMIMAJOR_AXIS":"6727.758","CENTER_NAME":"EARTH","INCLINATION":"53.2187","BSTAR":"-0.00053647000000","MEAN_MOTION_DDOT":"0.0000000000000","PERIAPSIS":"348.384","TLE_LINE2":"2 53024  53.2187 189.6801 0001841  26.8705 166.7295 15.73248126  1306","MEAN_ELEMENT_THEORY":"SGP4","OBJECT_NAME":"STARLINK-4289","MEAN_MOTION_DOT":"-0.00075399","RCS_SIZE":"LARGE","LAUNCH_DATE":"2022-07-07","CLASSIFICATION_TYPE":"U","FILE":"3536615","RA_OF_ASC_NODE":"189.6801","ARG_OF_PERICENTER":"26.8705","TIME_SYSTEM":"UTC","DECAY_DATE":null,"MEAN_MOTION":"15.73248126","EPHEMERIS_TYPE":"0","SITE":"AFETR","OBJECT_TYPE":"PAYLOAD"},{"OBJECT_ID":"2022-076AR","PERIOD":"91.529","REF_FRAME":"TEME","TLE_LINE1":"1 53025U 22076AR  22226.91667824 -.00054388  00000-0 -38444-3 0  9995","EPOCH":"2022-08-14T22:00:00.999936","MEAN_ANOMALY":"170.1244","REV_AT_EPOCH":"130","APOAPSIS":"351.055","GP_ID":"210235763","ECCENTRICITY":"0.00022080","COUNTRY_CODE":"US","MEAN_MOTION_DDOT":"0.0000000000000","BSTAR":"-0.00038444000000","SEMIMAJOR_AXIS":"6727.704","ELEMENT_SET_NO":"999","CENTER_NAME":"EARTH","INCLINATION":"53.2187","NORAD_CAT_ID":"53025","TIME_SYSTEM":"UTC","LAUNCH_DATE":"2022-07-07","RCS_SIZE":"LARGE","RA_OF_ASC_NODE":"189.6760","FILE":"3536615","ARG_OF_PERICENTER":"25.2164","CLASSIFICATION_TYPE":"U","PERIAPSIS":"348.084","MEAN_MOTION_DOT":"-0.00054388","OBJECT_NAME":"STARLINK-4218","TLE_LINE2":"2 53025  53.2187 189.6760 0002208  25.2164 170.1244 15.73266883  1304","MEAN_ELEMENT_THEORY":"SGP4","SITE":"AFETR","OBJECT_TYPE":"PAYLOAD","EPHEMERIS_TYPE":"0","MEAN_MOTION":"15.73266883","DECAY_DATE":null},{"OBJECT_TYPE":"PAYLOAD","SITE":"AFETR","MEAN_MOTION":"15.73239839","DECAY_DATE":null,"EPHEMERIS_TYPE":"0","LAUNCH_DATE":"2022-07-07","RCS_SIZE":"LARGE","CLASSIFICATION_TYPE":"U","RA_OF_ASC_NODE":"189.6818","FILE":"3536615","ARG_OF_PERICENTER":"27.1432","TIME_SYSTEM":"UTC","PERIAPSIS":"348.089","MEAN_ELEMENT_THEORY":"SGP4","TLE_LINE2":"2 53026  53.2186 189.6818 0002315  27.1432 165.2243 15.73239839  1301","OBJECT_NAME":"STARLINK-4119","MEAN_MOTION_DOT":"-0.00036931","BSTAR":"-0.00025938000000","MEAN_MOTION_DDOT":"0.0000000000000","NORAD_CAT_ID":"53026","ELEMENT_SET_NO":"999","SEMIMAJOR_AXIS":"6727.782","CENTER_NAME":"EARTH","INCLINATION":"53.2186","TLE_LINE1":"1 53026U 22076AS  22226.91667824 -.00036931  00000-0 -25938-3 0  9994","PERIOD":"91.531","OBJECT_ID":"2022-076AS","REF_FRAME":"TEME","GP_ID":"210235374","COUNTRY_CODE":"US","ECCENTRICITY":"0.00023150","MEAN_ANOMALY":"165.2243","EPOCH":"2022-08-14T22:00:00.999936","REV_AT_EPOCH":"130","APOAPSIS":"351.204"},{"RCS_SIZE":"LARGE","LAUNCH_DATE":"2022-07-07","CLASSIFICATION_TYPE":"U","RA_OF_ASC_NODE":"189.6740","FILE":"3536615","ARG_OF_PERICENTER":"39.4269","TIME_SYSTEM":"UTC","PERIAPSIS":"348.424","MEAN_ELEMENT_THEORY":"SGP4","TLE_LINE2":"2 53027  53.2170 189.6740 0001860  39.4269 157.8187 15.73229751  1303","MEAN_MOTION_DOT":"-0.00056704","OBJECT_NAME":"STARLINK-4158","OBJECT_TYPE":"PAYLOAD","SITE":"AFETR","DECAY_DATE":null,"MEAN_MOTION":"15.73229751","EPHEMERIS_TYPE":"0","TLE_LINE1":"1 53027U 22076AT  22226.91667824 -.00056704  00000-0 -40178-3 0  9998","PERIOD":"91.531","OBJECT_ID":"2022-076AT","REF_FRAME":"TEME","GP_ID":"210235502","COUNTRY_CODE":"US","ECCENTRICITY":"0.00018600","MEAN_ANOMALY":"157.8187","EPOCH":"2022-08-14T22:00:00.999936","REV_AT_EPOCH":"130","APOAPSIS":"350.927","BSTAR":"-0.00040178000000","MEAN_MOTION_DDOT":"0.0000000000000","NORAD_CAT_ID":"53027","ELEMENT_SET_NO":"999","SEMIMAJOR_AXIS":"6727.810","CENTER_NAME":"EARTH","INCLINATION":"53.2170"},{"PERIOD":"91.509","OBJECT_ID":"2022-076AU","REF_FRAME":"TEME","TLE_LINE1":"1 53028U 22076AU  22226.91667824  .00058226  00000-0  40898-3 0  9997","MEAN_ANOMALY":"148.9444","EPOCH":"2022-08-14T22:00:00.999936","APOAPSIS":"350.050","REV_AT_EPOCH":"130","GP_ID":"210235246","COUNTRY_CODE":"US","ECCENTRICITY":"0.00022110","MEAN_MOTION_DDOT":"0.0000000000000","BSTAR":"0.00040898000000","ELEMENT_SET_NO":"999","SEMIMAJOR_AXIS":"6726.698","INCLINATION":"53.2187","CENTER_NAME":"EARTH","NORAD_CAT_ID":"53028","TIME_SYSTEM":"UTC","LAUNCH_DATE":"2022-07-07","RCS_SIZE":"LARGE","CLASSIFICATION_TYPE":"U","FILE":"3536615","RA_OF_ASC_NODE":"189.6712","ARG_OF_PERICENTER":"48.9120","PERIAPSIS":"347.076","TLE_LINE2":"2 53028  53.2187 189.6712 0002211  48.9120 148.9444 15.73620019  1302","MEAN_ELEMENT_THEORY":"SGP4","MEAN_MOTION_DOT":"0.00058226","OBJECT_NAME":"STARLINK-4161","SITE":"AFETR","OBJECT_TYPE":"PAYLOAD","DECAY_DATE":null,"MEAN_MOTION":"15.73620019","EPHEMERIS_TYPE":"0"}];
